ONEWEB-0116             
1 48046U 21025E   25269.70448690 -.00000508  00000+0 -14262-2 0  9995
2 48046  87.9053  12.5534 0001648  99.1027 261.0289 13.13468801219064
ONEWEB-0150             
1 48047U 21025F   25269.75697279  .00000046  00000+0  92211-4 0  9997
2 48047  87.9051  12.5383 0001880  96.3202 263.8142 13.13468435218966
ONEWEB-0107             
1 48048U 21025G   25269.75867563 -.00000045  00000+0 -15736-3 0  9990
2 48048  87.9051  12.5356 0001988 106.6953 253.4394 13.13468263218945
ONEWEB-0101             
1 48049U 21025H   25269.79760486 -.00000050  00000+0 -17099-3 0  9991
2 48049  87.9047  12.5664 0001747 105.7804 254.3518 13.13468995218929
ONEWEB-0113             
1 48050U 21025J   25269.69156222 -.00000248  00000+0 -70897-3 0  9993
2 48050  87.9050  12.5259 0001705  92.4024 267.7301 13.13977629219002
ONEWEB-0112             
1 48051U 21025K   25269.76375529 -.00000208  00000+0 -60462-3 0  9998
2 48051  87.9052  12.5313 0001801  98.9008 261.2325 13.13469884219011
ONEWEB-0156             
1 48052U 21025L   25269.84838899 -.00000350  00000+0 -99339-3 0  9995
2 48052  87.9051  12.5264 0001899 101.4601 258.6741 13.13470200219007
ONEWEB-0161             
1 48053U 21025M   25269.74681773  .00000305  00000+0  80037-3 0  9995
2 48053  87.9050  12.5660 0001902 103.1863 256.9478 13.13472406218929
