<?xml version="1.0" encoding="UTF-8"?>
<ndm xmlns:xsi="http://www.w3.org/2001/XMLSchema-instance" xsi:noNamespaceSchemaLocation="https://sanaregistry.org/r/ndmxml_unqualified/ndmxml-2.0.0-master-2.0.xsd">
<omm id="CCSDS_OMM_VERS" version="2.0">
<header><CREATION_DATE/><ORIGINATOR/></header><body><segment><metadata><OBJECT_NAME>ONEWEB-0116</OBJECT_NAME><OBJECT_ID>2021-025E</OBJECT_ID><CENTER_NAME>EARTH</CENTER_NAME><REF_FRAME>TEME</REF_FRAME><TIME_SYSTEM>UTC</TIME_SYSTEM><MEAN_ELEMENT_THEORY>SGP4</MEAN_ELEMENT_THEORY></metadata><data><meanElements><EPOCH>2025-09-26T16:54:27.668160</EPOCH><MEAN_MOTION>13.13468801</MEAN_MOTION><ECCENTRICITY>.00016483</ECCENTRICITY><INCLINATION>87.9053</INCLINATION><RA_OF_ASC_NODE>12.5534</RA_OF_ASC_NODE><ARG_OF_PERICENTER>99.1027</ARG_OF_PERICENTER><MEAN_ANOMALY>261.0289</MEAN_ANOMALY></meanElements><tleParameters><EPHEMERIS_TYPE>0</EPHEMERIS_TYPE><CLASSIFICATION_TYPE>U</CLASSIFICATION_TYPE><NORAD_CAT_ID>48046</NORAD_CAT_ID><ELEMENT_SET_NO>999</ELEMENT_SET_NO><REV_AT_EPOCH>21906</REV_AT_EPOCH><BSTAR>-.14261513E-2</BSTAR><MEAN_MOTION_DOT>-.508E-5</MEAN_MOTION_DOT><MEAN_MOTION_DDOT>0</MEAN_MOTION_DDOT></tleParameters></data></segment></body></omm>
<omm id="CCSDS_OMM_VERS" version="2.0">
<header><CREATION_DATE/><ORIGINATOR/></header><body><segment><metadata><OBJECT_NAME>ONEWEB-0150</OBJECT_NAME><OBJECT_ID>2021-025F</OBJECT_ID><CENTER_NAME>EARTH</CENTER_NAME><REF_FRAME>TEME</REF_FRAME><TIME_SYSTEM>UTC</TIME_SYSTEM><MEAN_ELEMENT_THEORY>SGP4</MEAN_ELEMENT_THEORY></metadata><data><meanElements><EPOCH>2025-09-26T18:10:02.449056</EPOCH><MEAN_MOTION>13.13468435</MEAN_MOTION><ECCENTRICITY>.000188</ECCENTRICITY><INCLINATION>87.9051</INCLINATION><RA_OF_ASC_NODE>12.5383</RA_OF_ASC_NODE><ARG_OF_PERICENTER>96.3202</ARG_OF_PERICENTER><MEAN_ANOMALY>263.8142</MEAN_ANOMALY></meanElements><tleParameters><EPHEMERIS_TYPE>0</EPHEMERIS_TYPE><CLASSIFICATION_TYPE>U</CLASSIFICATION_TYPE><NORAD_CAT_ID>48047</NORAD_CAT_ID><ELEMENT_SET_NO>999</ELEMENT_SET_NO><REV_AT_EPOCH>21896</REV_AT_EPOCH><BSTAR>.92211112E-4</BSTAR><MEAN_MOTION_DOT>.46E-6</MEAN_MOTION_DOT><MEAN_MOTION_DDOT>0</MEAN_MOTION_DDOT></tleParameters></data></segment></body></omm>
<omm id="CCSDS_OMM_VERS" version="2.0">
<header><CREATION_DATE/><ORIGINATOR/></header><body><segment><metadata><OBJECT_NAME>ONEWEB-0107</OBJECT_NAME><OBJECT_ID>2021-025G</OBJECT_ID><CENTER_NAME>EARTH</CENTER_NAME><REF_FRAME>TEME</REF_FRAME><TIME_SYSTEM>UTC</TIME_SYSTEM><MEAN_ELEMENT_THEORY>SGP4</MEAN_ELEMENT_THEORY></metadata><data><meanElements><EPOCH>2025-09-26T18:12:29.574432</EPOCH><MEAN_MOTION>13.13468263</MEAN_MOTION><ECCENTRICITY>.00019882</ECCENTRICITY><INCLINATION>87.9051</INCLINATION><RA_OF_ASC_NODE>12.5356</RA_OF_ASC_NODE><ARG_OF_PERICENTER>106.6953</ARG_OF_PERICENTER><MEAN_ANOMALY>253.4394</MEAN_ANOMALY></meanElements><tleParameters><EPHEMERIS_TYPE>0</EPHEMERIS_TYPE><CLASSIFICATION_TYPE>U</CLASSIFICATION_TYPE><NORAD_CAT_ID>48048</NORAD_CAT_ID><ELEMENT_SET_NO>999</ELEMENT_SET_NO><REV_AT_EPOCH>21894</REV_AT_EPOCH><BSTAR>-.15735545E-3</BSTAR><MEAN_MOTION_DOT>-.45E-6</MEAN_MOTION_DOT><MEAN_MOTION_DDOT>0</MEAN_MOTION_DDOT></tleParameters></data></segment></body></omm>
<omm id="CCSDS_OMM_VERS" version="2.0">
<header><CREATION_DATE/><ORIGINATOR/></header><body><segment><metadata><OBJECT_NAME>ONEWEB-0101</OBJECT_NAME><OBJECT_ID>2021-025H</OBJECT_ID><CENTER_NAME>EARTH</CENTER_NAME><REF_FRAME>TEME</REF_FRAME><TIME_SYSTEM>UTC</TIME_SYSTEM><MEAN_ELEMENT_THEORY>SGP4</MEAN_ELEMENT_THEORY></metadata><data><meanElements><EPOCH>2025-09-26T19:08:33.059904</EPOCH><MEAN_MOTION>13.13468995</MEAN_MOTION><ECCENTRICITY>.00017479</ECCENTRICITY><INCLINATION>87.9047</INCLINATION><RA_OF_ASC_NODE>12.5664</RA_OF_ASC_NODE><ARG_OF_PERICENTER>105.7804</ARG_OF_PERICENTER><MEAN_ANOMALY>254.3518</MEAN_ANOMALY></meanElements><tleParameters><EPHEMERIS_TYPE>0</EPHEMERIS_TYPE><CLASSIFICATION_TYPE>U</CLASSIFICATION_TYPE><NORAD_CAT_ID>48049</NORAD_CAT_ID><ELEMENT_SET_NO>999</ELEMENT_SET_NO><REV_AT_EPOCH>21892</REV_AT_EPOCH><BSTAR>-.17099282E-3</BSTAR><MEAN_MOTION_DOT>-.5E-6</MEAN_MOTION_DOT><MEAN_MOTION_DDOT>0</MEAN_MOTION_DDOT></tleParameters></data></segment></body></omm>
<omm id="CCSDS_OMM_VERS" version="2.0">
<header><CREATION_DATE/><ORIGINATOR/></header><body><segment><metadata><OBJECT_NAME>ONEWEB-0113</OBJECT_NAME><OBJECT_ID>2021-025J</OBJECT_ID><CENTER_NAME>EARTH</CENTER_NAME><REF_FRAME>TEME</REF_FRAME><TIME_SYSTEM>UTC</TIME_SYSTEM><MEAN_ELEMENT_THEORY>SGP4</MEAN_ELEMENT_THEORY></metadata><data><meanElements><EPOCH>2025-09-26T16:35:50.975808</EPOCH><MEAN_MOTION>13.13977629</MEAN_MOTION><ECCENTRICITY>.00017057</ECCENTRICITY><INCLINATION>87.9050</INCLINATION><RA_OF_ASC_NODE>12.5259</RA_OF_ASC_NODE><ARG_OF_PERICENTER>92.4024</ARG_OF_PERICENTER><MEAN_ANOMALY>267.7301</MEAN_ANOMALY></meanElements><tleParameters><EPHEMERIS_TYPE>0</EPHEMERIS_TYPE><CLASSIFICATION_TYPE>U</CLASSIFICATION_TYPE><NORAD_CAT_ID>48050</NORAD_CAT_ID><ELEMENT_SET_NO>999</ELEMENT_SET_NO><REV_AT_EPOCH>21900</REV_AT_EPOCH><BSTAR>-.70896552E-3</BSTAR><MEAN_MOTION_DOT>-.248E-5</MEAN_MOTION_DOT><MEAN_MOTION_DDOT>0</MEAN_MOTION_DDOT></tleParameters></data></segment></body></omm>
<omm id="CCSDS_OMM_VERS" version="2.0">
<header><CREATION_DATE/><ORIGINATOR/></header><body><segment><metadata><OBJECT_NAME>ONEWEB-0112</OBJECT_NAME><OBJECT_ID>2021-025K</OBJECT_ID><CENTER_NAME>EARTH</CENTER_NAME><REF_FRAME>TEME</REF_FRAME><TIME_SYSTEM>UTC</TIME_SYSTEM><MEAN_ELEMENT_THEORY>SGP4</MEAN_ELEMENT_THEORY></metadata><data><meanElements><EPOCH>2025-09-26T18:19:48.457056</EPOCH><MEAN_MOTION>13.13469884</MEAN_MOTION><ECCENTRICITY>.00018018</ECCENTRICITY><INCLINATION>87.9052</INCLINATION><RA_OF_ASC_NODE>12.5313</RA_OF_ASC_NODE><ARG_OF_PERICENTER>98.9008</ARG_OF_PERICENTER><MEAN_ANOMALY>261.2325</MEAN_ANOMALY></meanElements><tleParameters><EPHEMERIS_TYPE>0</EPHEMERIS_TYPE><CLASSIFICATION_TYPE>U</CLASSIFICATION_TYPE><NORAD_CAT_ID>48051</NORAD_CAT_ID><ELEMENT_SET_NO>999</ELEMENT_SET_NO><REV_AT_EPOCH>21901</REV_AT_EPOCH><BSTAR>-.60461875E-3</BSTAR><MEAN_MOTION_DOT>-.208E-5</MEAN_MOTION_DOT><MEAN_MOTION_DDOT>0</MEAN_MOTION_DDOT></tleParameters></data></segment></body></omm>
<omm id="CCSDS_OMM_VERS" version="2.0">
<header><CREATION_DATE/><ORIGINATOR/></header><body><segment><metadata><OBJECT_NAME>ONEWEB-0156</OBJECT_NAME><OBJECT_ID>2021-025L</OBJECT_ID><CENTER_NAME>EARTH</CENTER_NAME><REF_FRAME>TEME</REF_FRAME><TIME_SYSTEM>UTC</TIME_SYSTEM><MEAN_ELEMENT_THEORY>SGP4</MEAN_ELEMENT_THEORY></metadata><data><meanElements><EPOCH>2025-09-26T20:21:40.808736</EPOCH><MEAN_MOTION>13.13470200</MEAN_MOTION><ECCENTRICITY>.00018996</ECCENTRICITY><INCLINATION>87.9051</INCLINATION><RA_OF_ASC_NODE>12.5264</RA_OF_ASC_NODE><ARG_OF_PERICENTER>101.4601</ARG_OF_PERICENTER><MEAN_ANOMALY>258.6741</MEAN_ANOMALY></meanElements><tleParameters><EPHEMERIS_TYPE>0</EPHEMERIS_TYPE><CLASSIFICATION_TYPE>U</CLASSIFICATION_TYPE><NORAD_CAT_ID>48052</NORAD_CAT_ID><ELEMENT_SET_NO>999</ELEMENT_SET_NO><REV_AT_EPOCH>21900</REV_AT_EPOCH><BSTAR>-.99339391E-3</BSTAR><MEAN_MOTION_DOT>-.35E-5</MEAN_MOTION_DOT><MEAN_MOTION_DDOT>0</MEAN_MOTION_DDOT></tleParameters></data></segment></body></omm>
<omm id="CCSDS_OMM_VERS" version="2.0">
<header><CREATION_DATE/><ORIGINATOR/></header><body><segment><metadata><OBJECT_NAME>ONEWEB-0161</OBJECT_NAME><OBJECT_ID>2021-025M</OBJECT_ID><CENTER_NAME>EARTH</CENTER_NAME><REF_FRAME>TEME</REF_FRAME><TIME_SYSTEM>UTC</TIME_SYSTEM><MEAN_ELEMENT_THEORY>SGP4</MEAN_ELEMENT_THEORY></metadata><data><meanElements><EPOCH>2025-09-26T17:55:25.051872</EPOCH><MEAN_MOTION>13.13472406</MEAN_MOTION><ECCENTRICITY>.00019022</ECCENTRICITY><INCLINATION>87.9050</INCLINATION><RA_OF_ASC_NODE>12.5660</RA_OF_ASC_NODE><ARG_OF_PERICENTER>103.1863</ARG_OF_PERICENTER><MEAN_ANOMALY>256.9478</MEAN_ANOMALY></meanElements><tleParameters><EPHEMERIS_TYPE>0</EPHEMERIS_TYPE><CLASSIFICATION_TYPE>U</CLASSIFICATION_TYPE><NORAD_CAT_ID>48053</NORAD_CAT_ID><ELEMENT_SET_NO>999</ELEMENT_SET_NO><REV_AT_EPOCH>21892</REV_AT_EPOCH><BSTAR>.80037384E-3</BSTAR><MEAN_MOTION_DOT>.305E-5</MEAN_MOTION_DOT><MEAN_MOTION_DDOT>0</MEAN_MOTION_DDOT></tleParameters></data></segment></body></omm>

</ndm>
